{"fetched_at":"2026-03-29T02:12:04Z","count":15717,"tles":[{"name":"PELICAN-1","line1":"1 58296U 23174AS  26087.20014080  .00026623  00000+0  29226-3 0  9997","line2":"2 58296  97.3996 182.8276 0009386 241.6544 118.3768 15.63143680133458","category":"Other"}]}